start=new Date('2022-12-13T00:00:00.000Z').valueOf();
sats=[{"MEAN_MOTION":"15.06410778","PERIAPSIS":"546.147","ARG_OF_PERICENTER":"61.9463","INCLINATION":"53.0542","TLE_LINE2":"2 47749  53.0542 111.6281 0001493  61.9463 298.1677 15.06410778 99588","CENTER_NAME":"EARTH","ELEMENT_SET_NO":"999","BSTAR":"0.00017921000000","REF_FRAME":"TEME","TIME_SYSTEM":"UTC","MEAN_MOTION_DDOT":"0.0000000000000","RA_OF_ASC_NODE":"111.6281","SEMIMAJOR_AXIS":"6925.316","REV_AT_EPOCH":"9958","ECCENTRICITY":"0.00014930","COUNTRY_CODE":"US","MEAN_ANOMALY":"298.1677","PERIOD":"95.591","MEAN_MOTION_DOT":"0.00002390","NORAD_CAT_ID":"47749","FILE":"3695286","LAUNCH_DATE":"2021-03-04","OBJECT_NAME":"STARLINK-2163","EPHEMERIS_TYPE":"0","RCS_SIZE":"LARGE","SITE":"AFETR","OBJECT_ID":"2021-017AD","GP_ID":"220207695","CLASSIFICATION_TYPE":"U","EPOCH":"2022-12-12T20:14:16.788768","OBJECT_TYPE":"PAYLOAD","APOAPSIS":"548.214","TLE_LINE1":"1 47749U 21017AD  22346.84324987  .00002390  00000-0  17921-3 0  9991","MEAN_ELEMENT_THEORY":"SGP4","DECAY_DATE":null},{"SEMIMAJOR_AXIS":"6925.345","ECCENTRICITY":"0.00019000","REV_AT_EPOCH":"9958","RA_OF_ASC_NODE":"111.7118","PERIOD":"95.592","MEAN_ANOMALY":"310.7945","MEAN_MOTION_DOT":"0.00001787","COUNTRY_CODE":"US","CENTER_NAME":"EARTH","TLE_LINE2":"2 47750  53.0552 111.7118 0001900  49.3209 310.7945 15.06401054 99588","ELEMENT_SET_NO":"999","MEAN_MOTION":"15.06401054","PERIAPSIS":"545.895","INCLINATION":"53.0552","ARG_OF_PERICENTER":"49.3209","MEAN_MOTION_DDOT":"0.0000000000000","TIME_SYSTEM":"UTC","REF_FRAME":"TEME","BSTAR":"0.00013887000000","EPOCH":"2022-12-12T19:42:26.714592","OBJECT_TYPE":"PAYLOAD","APOAPSIS":"548.526","CLASSIFICATION_TYPE":"U","GP_ID":"220207943","MEAN_ELEMENT_THEORY":"SGP4","DECAY_DATE":null,"TLE_LINE1":"1 47750U 21017AE  22346.82114253  .00001787  00000-0  13887-3 0  9990","FILE":"3695286","NORAD_CAT_ID":"47750","OBJECT_NAME":"STARLINK-2164","LAUNCH_DATE":"2021-03-04","OBJECT_ID":"2021-017AE","EPHEMERIS_TYPE":"0","SITE":"AFETR","RCS_SIZE":"LARGE"},{"MEAN_MOTION_DDOT":"0.0000000000000","TIME_SYSTEM":"UTC","REF_FRAME":"TEME","BSTAR":"-0.00000211280000","ELEMENT_SET_NO":"999","CENTER_NAME":"EARTH","TLE_LINE2":"2 47751  53.0560 102.1962 0002060  52.1405 307.9770 15.06401327 99719","INCLINATION":"53.0560","PERIAPSIS":"545.783","ARG_OF_PERICENTER":"52.1405","MEAN_MOTION":"15.06401327","MEAN_MOTION_DOT":"-0.00000313","PERIOD":"95.592","MEAN_ANOMALY":"307.9770","COUNTRY_CODE":"US","ECCENTRICITY":"0.00020600","REV_AT_EPOCH":"9971","SEMIMAJOR_AXIS":"6925.344","RA_OF_ASC_NODE":"102.1962","OBJECT_ID":"2021-017AF","SITE":"AFETR","RCS_SIZE":"LARGE","EPHEMERIS_TYPE":"0","LAUNCH_DATE":"2021-03-04","OBJECT_NAME":"STARLINK-2168","FILE":"3695286","NORAD_CAT_ID":"47751","DECAY_DATE":null,"MEAN_ELEMENT_THEORY":"SGP4","TLE_LINE1":"1 47751U 21017AF  22346.71884935 -.00000313  00000-0 -21128-5 0  9995","APOAPSIS":"548.636","OBJECT_TYPE":"PAYLOAD","EPOCH":"2022-12-12T17:15:08.583840","CLASSIFICATION_TYPE":"U","GP_ID":"220207192"},{"COUNTRY_CODE":"US","MEAN_MOTION_DOT":"0.00001135","MEAN_ANOMALY":"280.3021","PERIOD":"95.592","RA_OF_ASC_NODE":"118.5215","REV_AT_EPOCH":"9950","ECCENTRICITY":"0.00015070","SEMIMAJOR_AXIS":"6925.348","BSTAR":"0.00009511200000","REF_FRAME":"TEME","TIME_SYSTEM":"UTC","MEAN_MOTION_DDOT":"0.0000000000000","PERIAPSIS":"546.169","INCLINATION":"53.0544","ARG_OF_PERICENTER":"79.8138","MEAN_MOTION":"15.06400324","ELEMENT_SET_NO":"999","TLE_LINE2":"2 47752  53.0544 118.5215 0001507  79.8138 280.3021 15.06400324 99504","CENTER_NAME":"EARTH","TLE_LINE1":"1 47752U 21017AG  22346.42074988  .00001135  00000-0  95112-4 0  9997","DECAY_DATE":null,"MEAN_ELEMENT_THEORY":"SGP4","GP_ID":"220167075","CLASSIFICATION_TYPE":"U","APOAPSIS":"548.256","OBJECT_TYPE":"PAYLOAD","EPOCH":"2022-12-12T10:05:52.789632","RCS_SIZE":"LARGE","SITE":"AFETR","EPHEMERIS_TYPE":"0","OBJECT_ID":"2021-017AG","LAUNCH_DATE":"2021-03-04","OBJECT_NAME":"STARLINK-2169","NORAD_CAT_ID":"47752","FILE":"3694071"},{"MEAN_MOTION":"15.06405764","ARG_OF_PERICENTER":"56.7480","PERIAPSIS":"545.933","INCLINATION":"53.0548","CENTER_NAME":"EARTH","TLE_LINE2":"2 47753  53.0548 121.8564 0001824  56.7480 303.3684 15.06405764 99480","ELEMENT_SET_NO":"999","REF_FRAME":"TEME","BSTAR":"0.00023476000000","MEAN_MOTION_DDOT":"0.0000000000000","TIME_SYSTEM":"UTC","RA_OF_ASC_NODE":"121.8564","SEMIMAJOR_AXIS":"6925.331","ECCENTRICITY":"0.00018240","REV_AT_EPOCH":"9948","COUNTRY_CODE":"US","PERIOD":"95.592","MEAN_ANOMALY":"303.3684","MEAN_MOTION_DOT":"0.00003217","NORAD_CAT_ID":"47753","FILE":"3695286","LAUNCH_DATE":"2021-03-04","OBJECT_NAME":"STARLINK-2170","EPHEMERIS_TYPE":"0","SITE":"AFETR","RCS_SIZE":"LARGE","OBJECT_ID":"2021-017AH","CLASSIFICATION_TYPE":"U","GP_ID":"220208194","EPOCH":"2022-12-12T19:03:56.617056","OBJECT_TYPE":"PAYLOAD","APOAPSIS":"548.459","TLE_LINE1":"1 47753U 21017AH  22346.79440529  .00003217  00000-0  23476-3 0  9992","MEAN_ELEMENT_THEORY":"SGP4","DECAY_DATE":null},{"MEAN_MOTION_DOT":"0.00002055","MEAN_ANOMALY":"310.8742","PERIOD":"95.592","COUNTRY_CODE":"US","REV_AT_EPOCH":"9939","ECCENTRICITY":"0.00019650","SEMIMAJOR_AXIS":"6925.355","RA_OF_ASC_NODE":"123.4608","TIME_SYSTEM":"UTC","MEAN_MOTION_DDOT":"0.0000000000000","BSTAR":"0.00015682000000","REF_FRAME":"TEME","ELEMENT_SET_NO":"999","TLE_LINE2":"2 47754  53.0534 123.4608 0001965  49.2418 310.8742 15.06397858 99399","CENTER_NAME":"EARTH","PERIAPSIS":"545.859","INCLINATION":"53.0534","ARG_OF_PERICENTER":"49.2418","MEAN_MOTION":"15.06397858","DECAY_DATE":null,"MEAN_ELEMENT_THEORY":"SGP4","TLE_LINE1":"1 47754U 21017AJ  22346.43319263  .00002055  00000-0  15682-3 0  9993","APOAPSIS":"548.581","OBJECT_TYPE":"PAYLOAD","EPOCH":"2022-12-12T10:23:47.843232","GP_ID":"220166586","CLASSIFICATION_TYPE":"U","OBJECT_ID":"2021-017AJ","RCS_SIZE":"LARGE","SITE":"AFETR","EPHEMERIS_TYPE":"0","OBJECT_NAME":"STARLINK-2171","LAUNCH_DATE":"2021-03-04","NORAD_CAT_ID":"47754","FILE":"3694071"},{"BSTAR":"0.00017952000000","REF_FRAME":"TEME","TIME_SYSTEM":"UTC","MEAN_MOTION_DDOT":"0.0000000000000","INCLINATION":"53.0583","PERIAPSIS":"545.018","ARG_OF_PERICENTER":"95.0407","MEAN_MOTION":"15.06419701","ELEMENT_SET_NO":"999","TLE_LINE2":"2 47756  53.0583 121.7103 0003083  95.0407 265.0934 15.06419701 99493","CENTER_NAME":"EARTH","COUNTRY_CODE":"US","MEAN_MOTION_DOT":"0.00002394","MEAN_ANOMALY":"265.0934","PERIOD":"95.591","RA_OF_ASC_NODE":"121.7103","REV_AT_EPOCH":"9949","ECCENTRICITY":"0.00030830","SEMIMAJOR_AXIS":"6925.288","RCS_SIZE":"LARGE","SITE":"AFETR","EPHEMERIS_TYPE":"0","OBJECT_ID":"2021-017AL","OBJECT_NAME":"STARLINK-2174","LAUNCH_DATE":"2021-03-04","FILE":"3695286","NORAD_CAT_ID":"47756","TLE_LINE1":"1 47756U 21017AL  22346.82756783  .00002394  00000-0  17952-3 0  9998","DECAY_DATE":null,"MEAN_ELEMENT_THEORY":"SGP4","GP_ID":"220206694","CLASSIFICATION_TYPE":"U","APOAPSIS":"549.288","EPOCH":"2022-12-12T19:51:41.860512","OBJECT_TYPE":"PAYLOAD"},{"OBJECT_TYPE":"PAYLOAD","EPOCH":"2022-12-12T08:21:42.859872","APOAPSIS":"548.412","GP_ID":"220166337","CLASSIFICATION_TYPE":"U","MEAN_ELEMENT_THEORY":"SGP4","DECAY_DATE":null,"TLE_LINE1":"1 47757U 21017AM  22346.34841273  .00000126  00000-0  27353-4 0  9993","NORAD_CAT_ID":"47757","FILE":"3694071","OBJECT_NAME":"STARLINK-2175","LAUNCH_DATE":"2021-03-04","OBJECT_ID":"2021-017AM","EPHEMERIS_TYPE":"0","RCS_SIZE":"LARGE","SITE":"AFETR","SEMIMAJOR_AXIS":"6925.352","REV_AT_EPOCH":"9936","ECCENTRICITY":"0.00017260","RA_OF_ASC_NODE":"123.8320","MEAN_ANOMALY":"287.4071","PERIOD":"95.592","MEAN_MOTION_DOT":"0.00000126","COUNTRY_CODE":"US","TLE_LINE2":"2 47757  53.0541 123.8320 0001726  72.7107 287.4071 15.06398827 99364","CENTER_NAME":"EARTH","ELEMENT_SET_NO":"999","MEAN_MOTION":"15.06398827","PERIAPSIS":"546.022","INCLINATION":"53.0541","ARG_OF_PERICENTER":"72.7107","TIME_SYSTEM":"UTC","MEAN_MOTION_DDOT":"0.0000000000000","BSTAR":"0.00002735300000","REF_FRAME":"TEME"},{"COUNTRY_CODE":"US","PERIOD":"95.592","MEAN_ANOMALY":"296.2028","MEAN_MOTION_DOT":"0.00000058","RA_OF_ASC_NODE":"133.7049","SEMIMAJOR_AXIS":"6925.348","ECCENTRICITY":"0.00015560","REV_AT_EPOCH":"9926","REF_FRAME":"TEME","BSTAR":"0.00002276900000","MEAN_MOTION_DDOT":"0.0000000000000","TIME_SYSTEM":"UTC","MEAN_MOTION":"15.06400301","PERIAPSIS":"546.135","ARG_OF_PERICENTER":"63.9121","INCLINATION":"53.0539","CENTER_NAME":"EARTH","TLE_LINE2":"2 47760  53.0539 133.7049 0001556  63.9121 296.2028 15.06400301 99262","ELEMENT_SET_NO":"999","TLE_LINE1":"1 47760U 21017AQ  22346.38066274  .00000058  00000-0  22769-4 0  9991","MEAN_ELEMENT_THEORY":"SGP4","DECAY_DATE":null,"CLASSIFICATION_TYPE":"U","GP_ID":"220167076","OBJECT_TYPE":"PAYLOAD","EPOCH":"2022-12-12T09:08:09.260736","APOAPSIS":"548.290","EPHEMERIS_TYPE":"0","SITE":"AFETR","RCS_SIZE":"LARGE","OBJECT_ID":"2021-017AQ","FILE":"3694071","NORAD_CAT_ID":"47760","OBJECT_NAME":"STARLINK-2178","LAUNCH_DATE":"2021-03-04"},{"COUNTRY_CODE":"US","PERIOD":"95.592","MEAN_ANOMALY":"251.3449","MEAN_MOTION_DOT":"0.00001180","RA_OF_ASC_NODE":"123.5663","SEMIMAJOR_AXIS":"6925.351","ECCENTRICITY":"0.00015600","REV_AT_EPOCH":"9938","REF_FRAME":"TEME","BSTAR":"0.00009808100000","MEAN_MOTION_DDOT":"0.0000000000000","TIME_SYSTEM":"UTC","MEAN_MOTION":"15.06399230","PERIAPSIS":"546.136","ARG_OF_PERICENTER":"108.7709","INCLINATION":"53.0564","CENTER_NAME":"EARTH","TLE_LINE2":"2 47761  53.0564 123.5663 0001560 108.7709 251.3449 15.06399230 99385","ELEMENT_SET_NO":"999","TLE_LINE1":"1 47761U 21017AR  22346.41107574  .00001180  00000-0  98081-4 0  9992","MEAN_ELEMENT_THEORY":"SGP4","DECAY_DATE":null,"CLASSIFICATION_TYPE":"U","GP_ID":"220165837","OBJECT_TYPE":"PAYLOAD","EPOCH":"2022-12-12T09:51:56.943936","APOAPSIS":"548.296","EPHEMERIS_TYPE":"0","SITE":"AFETR","RCS_SIZE":"LARGE","OBJECT_ID":"2021-017AR","FILE":"3694071","NORAD_CAT_ID":"47761","LAUNCH_DATE":"2021-03-04","OBJECT_NAME":"STARLINK-2179"}];
